OBJECT_NAME,OBJECT_ID,EPOCH,MEAN_MOTION,ECCENTRICITY,INCLINATION,RA_OF_ASC_NODE,ARG_OF_PERICENTER,MEAN_ANOMALY,EPHEMERIS_TYPE,CLASSIFICATION_TYPE,NORAD_CAT_ID,ELEMENT_SET_NO,REV_AT_EPOCH,BSTAR,MEAN_MOTION_DOT,MEAN_MOTION_DDOT
GLOBALSTAR M069,2007-020C,2026-06-25T13:03:10.896768,12.23471416,.0002148,52.0009,228.4743,166.3867,341.7045,0,U,31573,999,87982,.30421E-3,-.6E-6,0
GLOBALSTAR M072,2007-020D,2026-06-26T00:51:39.428064,11.91658402,.0001512,51.9936,76.6878,354.0091,108.2725,0,U,31574,999,87603,-.81172E-4,-.9E-6,0
GLOBALSTAR M066,2007-048C,2026-06-25T22:35:43.628352,12.30386859,.0005618,51.9609,32.7817,62.7065,45.6466,0,U,32265,999,86130,-.32135E-3,-.132E-5,0
GLOBALSTAR M079,2010-054A,2026-06-25T22:19:04.840032,12.62266160,.0000899,52.0044,82.0558,43.6644,36.7334,0,U,37188,999,72365,-.64042E-4,-.115E-5,0
GLOBALSTAR M074,2010-054B,2026-06-25T12:01:29.168256,12.62268400,.0000717,52.0023,82.6248,63.8298,107.0045,0,U,37189,999,72420,-.53701E-4,-.113E-5,0
GLOBALSTAR M076,2010-054C,2026-06-25T21:40:24.358080,12.62261877,.0000921,52.0029,81.6049,59.6971,18.7735,0,U,37190,999,72397,-.69137E-4,-.116E-5,0
GLOBALSTAR M077,2010-054D,2026-06-26T04:28:22.336896,11.67547937,.0002592,51.9924,156.4534,189.0932,186.0181,0,U,37191,999,72219,.24596E-3,-.65E-6,0
GLOBALSTAR M075,2010-054E,2026-06-26T03:49:01.857792,12.62267371,.000038,51.9938,122.8746,35.3918,66.9982,0,U,37192,999,72307,-.38939E-4,-.111E-5,0
GLOBALSTAR M073,2010-054F,2026-06-26T00:15:26.641728,12.62266636,.0001059,52.0074,37.4341,65.3476,81.1419,0,U,37193,999,72504,.68682E-4,-.91E-6,0
GLOBALSTAR M083,2011-033A,2026-06-26T04:29:56.264064,12.62263607,.000096,51.9879,345.1119,81.4540,89.9223,0,U,37739,999,69408,.16583E-3,-.74E-6,0
GLOBALSTAR M088,2011-033B,2026-06-25T14:25:37.696800,12.62268972,.0000525,52.0205,253.3478,139.2589,4.9184,0,U,37740,999,68955,.90488E-4,-.88E-6,0
GLOBALSTAR M091,2011-033C,2026-06-25T12:56:21.707232,12.62264039,.0000098,51.9971,216.4889,171.3227,351.8930,0,U,37741,999,69033,.10043E-3,-.86E-6,0
GLOBALSTAR M085,2011-033D,2026-06-26T03:22:40.113120,12.62264160,.0000312,52.0098,165.9554,352.4704,85.9119,0,U,37742,999,69092,.56493E-4,-.94E-6,0
GLOBALSTAR M081,2011-033E,2026-06-26T05:34:08.167872,12.62265217,.0000216,51.9930,168.1037,36.5022,336.6538,0,U,37743,999,69108,.90824E-4,-.87E-6,0
GLOBALSTAR M089,2011-033F,2026-06-25T21:07:26.324256,12.62267346,.0000469,51.9918,123.3318,78.1481,316.2089,0,U,37744,999,69188,-.25573E-4,-.108E-5,0
GLOBALSTAR M084,2011-080A,2026-06-25T22:07:22.859040,12.62267637,.0001103,52.0028,350.6909,99.8859,63.6463,0,U,38040,999,66986,.64473E-4,-.92E-6,0
GLOBALSTAR M080,2011-080B,2026-06-25T21:21:04.769856,12.62269684,.000042,52.0083,352.5100,77.4579,69.9865,0,U,38041,999,66998,.10923E-3,-.84E-6,0
GLOBALSTAR M082,2011-080C,2026-06-25T19:54:49.114368,12.62263705,.0000484,52.0091,308.1946,105.6187,59.3357,0,U,38042,999,67068,.28681E-5,-.103E-5,0
GLOBALSTAR M092,2011-080D,2026-06-25T22:47:02.512032,12.62267085,.0000812,52.0097,38.2277,76.0763,31.7414,0,U,38043,999,66915,.30982E-4,-.98E-6,0
GLOBALSTAR M090,2011-080E,2026-06-25T18:38:46.948128,12.62269095,.0000735,52.0135,302.3137,101.7109,62.3604,0,U,38044,999,67079,.13154E-5,-.104E-5,0
GLOBALSTAR M086,2011-080F,2026-06-25T19:09:53.722944,12.62287192,.0001695,51.9911,302.1638,82.0897,81.7934,0,U,38045,999,67074,.16062E-3,-.75E-6,0
GLOBALSTAR M097,2013-005A,2026-06-25T11:27:17.424000,12.62271180,.0000142,52.0019,218.1017,105.8377,254.2505,0,U,39072,999,61795,.13769E-3,-.79E-6,0
GLOBALSTAR M093,2013-005B,2026-06-25T12:42:38.912256,12.62266042,.0000203,52.0076,211.2911,44.3026,315.7857,0,U,39073,999,61791,.12298E-3,-.82E-6,0
GLOBALSTAR M094,2013-005C,2026-06-26T03:54:39.936672,12.62268484,.0000637,51.9944,123.4695,26.7983,333.2916,0,U,39074,999,61960,-.81562E-4,-.118E-5,0
GLOBALSTAR M096,2013-005D,2026-06-26T04:14:06.564768,12.62265624,.0000259,52.0044,172.2377,358.7966,1.2900,0,U,39075,999,61852,.35453E-4,-.97E-6,0
GLOBALSTAR M078,2013-005E,2026-06-25T14:17:08.185632,12.62259356,.0000484,51.9866,258.0065,265.9200,94.1612,0,U,39076,999,61707,.57558E-3,-.1E-7,0
GLOBALSTAR M095,2013-005F,2026-06-25T11:07:34.024800,12.62263562,.0000078,52.0077,256.0234,114.0594,246.0281,0,U,39077,999,61691,.58773E-4,-.93E-6,0
GLOBALSTAR M087,2022-064A,2026-06-25T15:14:37.500864,12.62269213,.0000877,52.0010,36.7333,55.5990,304.4960,0,U,52888,999,19220,.17061E-4,-.101E-5,0
